1 25116  97084E   18095.90107449 +.00000096 +00000-0 +77149-4 0  9997
2 25116 045.0170 279.2846 0005799 297.1853 062.8404 14.38732277062430 
1 25117  97084F   18095.86350661 +.00000142 +00000-0 +92032-4 0  9999
2 25117 045.0166 279.5699 0002081 353.9393 006.1430 14.38712119061517 
1 25118  97084G   18095.88545014 +.00000104 +00000-0 +79705-4 0  9990
2 25118 045.0163 279.3435 0002066 000.3806 137.8663 14.38715961062436 
1 25119  97084H   18095.87566403 +.00000097 +00000-0 +77313-4 0  9999
2 25119 045.0159 279.5438 0003126 325.0674 034.9969 14.38708636062432 
1 25135  98002B   18093.07563024  .00000167  00000-0  48370-4 0  9993
2 25135  26.8884  61.1442 0356298   6.8919 353.6342 13.62361811  8093 
1 25161  98007E   18096.02595819 -.00000010  00000-0  50326-4 0  9994
2 25161 107.9825 115.8715 0060610 169.1920 216.0964 14.25267774 46832 
1 25263  98018B   18095.68855379 +.00000189 +00000-0 +55363-4 0  9992
2 25263 086.4294 196.6041 0002112 101.6921 258.4514 14.38609633048617 
1 25272  98019A   18095.62841248 +.00000121 +00000-0 +32957-4 0  9997
2 25272 086.4256 164.8051 0002530 103.8752 256.2728 14.38605681047872 
1 25274  98019C   18095.63635125 +.00000147 +00000-0 +41476-4 0  9999
2 25274 086.4256 165.3119 0002472 103.6910 256.4564 14.38601940047878 
1 25319  98026A   18095.50561950  .00000130  00000-0  35945-4 0  9993
2 25319  86.3961 122.8090 0003708  63.3175 296.8402 14.38723663 45069 
1 25432  98048B   18095.51736332 -.00000029 +00000-0 -15919-4 0  9990
2 25432 086.4245 133.3404 0002409 100.6636 259.4833 14.38602749027504 
1 25468  98051B   18095.44803782 -.00000016  00000-0 -11698-4 0  9995
2 25468  86.4201 259.6382 0001839  91.7420 268.3989 14.38605464 24863 
1 26534  79104Q   18094.85706693 -.00000183  00000-0  19921-3 0  9995
2 26534  16.2013 355.0186 7022812 154.1611 271.4193  2.48811156161375 
1 27386  02009A   18096.06466673  .00000008  00000-0  16104-4 0  9993
2 27386  98.1929 133.4919 0001211  70.8162 289.3153 14.37919152843160 
1 27450  02031A   18095.68174111 +.00000180 +00000-0 +52316-4 0  9996
2 27450 086.4288 196.6545 0002093 097.7669 262.3767 14.38599632832118 
1 28051  03046A   18096.12245818 -.00000333  00000-0 -10119-3 0  9990
2 28051  98.5571 174.1177 0056465 248.0914 111.4017 14.34139612751243 
1 28310  91082X   18095.56463456 +.00001128 +00000-0 +39855-3 0  9991
2 28310 098.6828 127.8792 0007816 305.2584 209.3599 14.36637192725667 
1 28338  91082BB  18094.52745682 +.00001201 +00000-0 +42272-3 0  9999
2 28338 098.6759 127.1124 0009938 294.2691 065.7456 14.36682533722689 
1 28346  91082BK  18094.89027869  .00001147  00000-0  41400-3 0  9999
2 28346  98.6774 125.6569 0010559 325.8868 160.5216 14.35527124721195 
1 28554  79095C   18095.79392087 +.00001233 +00000-0 +43134-3 0  9999
2 28554 081.1879 117.3708 0020246 029.9992 330.2347 14.34574163179996 
1 28595  79095F   18094.41627878 +.00001078 +00000-0 +34819-3 0  9998
2 28595 081.1897 143.2899 0007743 128.3892 231.7991 14.38569060172492 
1 29051  06011E   18096.00091477  .00000043  00000-0  32937-4 0  9992
2 29051  72.0045 292.1818 0069706 234.7995 124.6602 14.28662426627439 
1 29073  91082BU  18095.90634294  .00001249  00000-0  43971-3 0  9994
2 29073  98.6594 128.8413 0012293 308.0577  51.9499 14.36588804704597 
1 29087  91082CG  18095.31500017  .00001278  00000-0  43038-3 0  9995
2 29087  98.7179 130.6511 0007990 268.8116  91.2155 14.38812600720367 
1 29088  91082CH  18094.91462059  .00001232  00000-0  43708-3 0  9998
2 29088  98.6797 128.1626 0009678 300.7268  59.2964 14.36270744711234 
1 29200  80073F   18096.14278442  .00002013  00000-0  67052-3 0  9996
2 29200  81.2094  47.5110 0043259  81.8573 278.7516 14.36793651626715 
1 29927  99025HZ  18095.47648383 +.00000902 +00000-0 +36492-3 0  9998
2 29927 099.1313 274.6856 0034010 181.9927 207.3564 14.30163935582513 
1 29934  99025JG  18095.52732586 +.00000286 +00000-0 +85160-4 0  9993
2 29934 098.9284 310.1121 0133503 071.0512 290.5093 14.46178801590641 
1 29979  99025LD  18095.69710663  .00000115  00000-0  68044-4 0  9995
2 29979  98.6935 169.3652 0114984  46.8887 103.3224 14.20982833581670 
1 30090  99025QT  18095.43234595  .00000220  00000-0  11549-3 0  9992
2 30090  99.3538  39.4025 0062216 186.7810 290.5426 14.23875769582782 
1 30196  99025VD  18095.73873169 -.00000001 +00000-0 +18146-4 0  9997
2 30196 098.6919 186.3536 0086106 314.5060 200.5556 14.25025681583660 
1 30199  99025VG  18095.11268558  .00000403  00000-0  17611-3 0  9992
2 30199  98.6588 140.4795 0091344 300.9282 112.1231 14.27035060582805 
1 30202  99025VK  18095.08067285  .00000612  00000-0  27086-3 0  9996
2 30202  98.8066 143.7784 0060149  30.6256 329.8413 14.25880411581022 
1 30221  99025WE  18095.50757370 +.00000111 +00000-0 +44136-4 0  9995
2 30221 098.9659 351.5280 0156149 082.5755 279.3145 14.41132105589193 
1 30265  99025YA  18095.60845444 +.00000750 +00000-0 +32114-3 0  9995
2 30265 098.8087 143.9129 0049864 014.2161 137.7607 14.27249469581501 
1 30316  99025AAD 18095.81331994 +.00000668 +00000-0 +29127-3 0  9993
2 30316 098.8054 144.3653 0059501 023.7617 336.6290 14.26391591581229 
1 30437  99025AEY 18095.97127633 +.00000715 +00000-0 +23148-3 0  9997
2 30437 098.9773 274.0607 0078042 259.5797 253.2736 14.40631595585344 
1 30445  99025AFG 18095.68979628 +.00000142 +00000-0 +56418-4 0  9994
2 30445 098.9271 265.6949 0121882 086.7382 274.7740 14.39764227587209 
1 30663  99025APV 18094.49672383  .00000742  00000-0  67636-3 0  9991
2 30663  99.2864 310.4653 0706326 328.3043  27.7308 13.07703802528437 
1 30764  99025AUA 18095.49170064 +.00000502 +00000-0 +59468-4 0  9992
2 30764 098.8228 090.0509 0188433 171.4253 349.2158 14.78248165594817 
1 31126  07012K   18095.38148529 +.00000109 +00000-0 +33605-4 0  9997
2 31126 098.1003 041.9855 0090054 349.4618 010.4691 14.56626380582367 
1 31183  99025BJM 18094.43741448 +.00000459 +00000-0 +18609-3 0  9993
2 31183 099.0824 271.4364 0065650 061.3443 329.3359 14.31589582571632 
1 31224  99025BLE 18094.36117076  .00000126  00000-0  63785-4 0  9992
2 31224  98.5977 154.7858 0169958 112.1656 311.8444 14.23717124572468 
1 31290  99025BNY 18095.39659139  .00001840  00000-0  54209-3 0  9994
2 31290 101.9374 161.6018 0103072 282.7074  76.2597 14.42681494577972 
1 31291  99025BNZ 18095.07733882 +.00001396 +00000-0 +42805-3 0  9993
2 31291 098.5674 037.2735 0075481 102.9881 030.9847 14.41637822575587 
1 31414  99025BTA 18095.83942642 +.00000983 +00000-0 +28943-3 0  9998
2 31414 098.6997 121.5601 0073967 067.1888 293.7094 14.44420332217572 
1 31419  99025BTF 18090.45269735  .00000797  00000-0  30289-3 0  9990
2 31419  98.7057 175.0994 0076235 288.1547  71.1346 14.32203828572615 
1 31427  99025BTP 18096.10971944  .00000735  00000-0  31569-3 0  9993
2 31427  98.8187 142.9781 0052018  15.9473  12.0975 14.27049896566794 
1 31444  99025BUG 18096.12292572  .00001046  00000-0  37208-3 0  9999
2 31444  98.9183 227.1259 0110383 103.4180 257.9335 14.33176866573393 
1 31494  99025BWH 18094.38838001  .00000854  00000-0  34260-3 0  9994
2 31494  99.5945 147.5400 0032096 345.7731  14.2542 14.31007735568283 
1 31516  99025BXF 18095.22335889  .00000098  00000-0  58119-4 0  9999
2 31516  98.7818 185.8389 0159354  60.3955 354.0842 14.20514642566109 
1 31570  99025BZM 18095.50041607 +.00000763 +00000-0 +51578-3 0  9992
2 31570 102.6110 107.2291 0194323 172.6892 187.7162 13.96534728239631 
1 31614  99025BZU 18093.76822826  .00001308  00000-0  56601-3 0  9995
2 31614  98.9748 191.5803 0063795 334.1065 177.6760 14.25044628561991 
1 31690  99025CCY 18096.08956621  .00002274  00000-0  68546-3 0  9992
2 31690  98.8167 195.5708 0026207  18.6817 341.5328 14.43347543570818 
1 31734  99025CEH 18094.34190758 +.00000139 +00000-0 +74588-4 0  9991
2 31734 098.6155 131.1441 0109529 304.3334 054.7518 14.24299328564240 
1 31744  99025CET 18094.24809778  .00000341  00000-0  16310-3 0  9993
2 31744  99.4458 119.6303 0412190 122.3317 241.8450 13.88725051555233 
1 31746  99025CEV 18095.65007177 +.00000831 +00000-0 +32513-3 0  9991
2 31746 098.6956 160.2922 0043145 309.7362 203.5875 14.31688819565998 
1 31805  99025CGT 18095.91567278  .00000406  00000-0  15379-3 0  9998
2 31805  98.4122 338.3208 0556297 299.8314  54.8644 13.74657691541956 
1 31826  99025CHQ 18095.57919722 +.00000135 +00000-0 +85909-4 0  9994
2 31826 098.7455 133.5695 0130420 326.4631 190.2729 14.14686232560735 
1 31905  99025CLG 18094.29368217 +.00000209 +00000-0 +90723-4 0  9999
2 31905 099.2035 278.3849 0219889 253.3385 104.3550 14.23503444565874 
1 32063  07042B   18095.56885970 -.00000053 +00000-0 -24506-5 0  9990
2 32063 097.9897 130.4574 0055867 004.4905 147.5060 14.50098046557841 
1 32245  99025CWT 18094.20609780  .00000516  00000-0  13637-3 0  9990
2 32245  98.4961 189.0523 0154245 284.9895  73.4268 14.46648149565833 
1 32304  99025CWV 18094.26021541  .00000291  00000-0  11892-3 0  9996
2 32304  99.4397 107.3125 0065668 106.9538 253.8855 14.34292600558912 
1 32325  99025CXS 18086.66317822  .00001531  00000-0  49889-3 0  9999
2 32325  98.9756 243.4812 0068811  89.4431 271.4639 14.38878786560506 
1 32360  99025CZD 18091.87321375  .00001061  00000-0  78645-3 0  9995
2 32360  98.1254 244.1975 0283518 164.0974 196.9315 13.79479989542310 
1 32459  99025DBX 18095.91206837 +.00000235 +00000-0 +77812-4 0  9996
2 32459 098.5834 135.9786 0240812 273.7458 083.6223 14.32527697542791 
1 33319  08040H   18095.79731604 -.00000029 +00000-0 +65250-5 0  9996
2 33319 097.9849 022.0072 0495194 304.0941 071.7474 13.75058955481734 
1 33764  93036M   18095.77725260 +.00000149 +00000-0 +61324-4 0  9997
2 33764 074.0373 028.9495 0025165 314.7833 075.5313 14.34929427478473 
1 33775  97051N   18095.63591142 +.00000169 +00000-0 +52443-4 0  9999
2 33775 086.3711 157.4499 0014652 012.6417 139.3468 14.34903647478241 
1 33776  97051P   18096.17286455  .00000103  00000-0  29967-4 0  9991
2 33776  86.4109 172.8679 0015293  19.2568   9.6324 14.33825071478273 
